NORAD_CAT_ID,OBJECT_NAME,OBJECT_TYPE,EPOCH,MEAN_MOTION,ECCENTRICITY,INCLINATION,RA_OF_ASC_NODE,ARG_OF_PERICENTER,MEAN_ANOMALY,BSTAR,MEAN_MOTION_DOT,MEAN_MOTION_DDOT,TLE_LINE0,TLE_LINE1,TLE_LINE2,SEMIMAJOR_AXIS,PERIOD,APOGEE,PERIGEE,DECAYED
55963.0,STARLINK-5924,PAYLOAD,2024-05-01 09:45:30,14.98327251,0.0002647,70.0013,172.0921,266.6013,93.4843,-3.9065e-05,-5.59e-06,0.0,0 STARLINK-5924,1 55963U 23037BB  24122.40660608 -.00000559  00000-0 -39065-4 0  9992,2 55963  70.0013 172.0921 0002647 266.6013  93.4843 14.98327251 63367,6950.201,96.107,573.906,570.227,0.0
55963.0,STARLINK-5924,PAYLOAD,2024-05-01 20:58:28,14.9831708,0.0002559,70.0023,170.9135,275.242,84.8447,-6.8905e-05,-9.15e-06,0.0,0 STARLINK-5924,1 55963U 23037BB  24122.87393675 -.00000915  00000-0 -68905-4 0  9991,2 55963  70.0023 170.9135 0002559 275.2420  84.8447 14.98317080 63433,6950.233,96.108,573.876,570.319,0.0
55963.0,STARLINK-5924,PAYLOAD,2024-05-02 12:59:48,14.98326515,0.0002977,69.9996,169.2301,268.8135,91.2683,-5.6932e-05,-7.72e-06,0.0,0 STARLINK-5924,1 55963U 23037BB  24123.54153043 -.00000772  00000-0 -56932-4 0  9997,2 55963  69.9996 169.2301 0002977 268.8135  91.2683 14.98326515 63538,6950.204,96.107,574.138,570.0,0.0
55963.0,STARLINK-5924,PAYLOAD,2024-05-03 05:01:08,14.98326785,0.0003059,69.9989,167.5473,268.8144,91.2664,0.00021437,2.466e-05,0.0,0 STARLINK-5924,1 55963U 23037BB  24124.20912435  .00002466  00000-0  21437-3 0  9990,2 55963  69.9989 167.5473 0003059 268.8144  91.2664 14.98326785 63632,6950.203,96.107,574.194,569.942,0.0
55963.0,STARLINK-5924,PAYLOAD,2024-05-03 13:01:48,14.98332814,0.0003013,69.9989,166.7056,268.8136,91.2678,0.00030447,3.542e-05,0.0,0 STARLINK-5924,1 55963U 23037BB  24124.54292033  .00003542  00000-0  30447-3 0  9999,2 55963  69.9989 166.7056 0003013 268.8136  91.2678 14.98332814 63344,6950.184,96.107,574.143,569.955,0.0
55963.0,STARLINK-5924,PAYLOAD,2024-05-03 19:26:20,14.98332091,0.0003012,69.9988,166.0322,268.6528,91.4285,0.00024854,2.874e-05,0.0,0 STARLINK-5924,1 55963U 23037BB  24124.80996214  .00002874  00000-0  24854-3 0  9992,2 55963  69.9988 166.0322 0003012 268.6528  91.4285 14.98332091 63381,6950.186,96.107,574.145,569.958,0.0
55963.0,STARLINK-5924,PAYLOAD,2024-05-04 05:03:09,14.98335313,0.0002978,69.9988,165.0224,268.3252,91.7565,0.00022441,2.586e-05,0.0,0 STARLINK-5924,1 55963U 23037BB  24125.21052208  .00002586  00000-0  22441-3 0  9994,2 55963  69.9988 165.0224 0002978 268.3252  91.7565 14.98335313 63780,6950.176,96.107,574.111,569.972,0.0
55963.0,STARLINK-5924,PAYLOAD,2024-05-05 05:05:09,14.98346644,0.0002981,70.0001,162.4976,269.0213,91.0604,0.00013426,1.51e-05,0.0,0 STARLINK-5924,1 55963U 23037BB  24126.21191207  .00001510  00000-0  13426-3 0  9997,2 55963  70.0001 162.4976 0002981 269.0213  91.0604 14.98346644 63936,6950.141,96.106,574.078,569.935,0.0
55963.0,STARLINK-5924,PAYLOAD,2024-05-05 13:05:49,14.98348192,0.0002953,69.9989,161.6559,268.8618,91.2202,0.00013429,1.51e-05,0.0,0 STARLINK-5924,1 55963U 23037BB  24126.54570889  .00001510  00000-0  13429-3 0  9993,2 55963  69.9989 161.6559 0002953 268.8618  91.2202 14.98348192 63645,6950.137,96.106,574.054,569.949,0.0
55963.0,STARLINK-5924,PAYLOAD,2024-05-05 19:30:21,14.9834353,0.0002928,69.999,160.9824,270.5365,89.5458,7.643e-05,8.19e-06,0.0,0 STARLINK-5924,1 55963U 23037BB  24126.81275016  .00000819  00000-0  76430-4 0  9990,2 55963  69.9990 160.9824 0002928 270.5365  89.5458 14.98343530 63683,6950.151,96.106,574.051,569.981,0.0
55963.0,STARLINK-5924,PAYLOAD,2024-05-06 05:07:10,14.9833933,0.0002923,69.9988,159.9725,271.2791,88.8033,4.554e-05,4.51e-06,0.0,0 STARLINK-5924,1 55963U 23037BB  24127.21331075  .00000451  00000-0  45540-4 0  9993,2 55963  69.9988 159.9725 0002923 271.2791  88.8033 14.98339330 64083,6950.164,96.106,574.061,569.998,0.0
55963.0,STARLINK-5924,PAYLOAD,2024-05-06 11:31:42,14.98337754,0.000293,69.9989,159.2995,270.5573,89.5251,2.6717e-05,2.26e-06,0.0,0 STARLINK-5924,1 55963U 23037BB  24127.48035031  .00000226  00000-0  26717-4 0  9990,2 55963  69.9989 159.2995 0002930 270.5573  89.5251 14.98337754 63788,6950.169,96.107,574.07,569.998,0.0
55963.0,STARLINK-5924,PAYLOAD,2024-05-06 19:32:22,14.98336012,0.0002924,69.9989,158.458,270.9571,89.1253,-9.2992e-06,-2.04e-06,0.0,0 STARLINK-5924,1 55963U 23037BB  24127.81415009 -.00000204  00000-0 -92992-5 0  9991,2 55963  69.9989 158.4580 0002924 270.9571  89.1253 14.98336012 63834,6950.174,96.107,574.072,570.007,0.0
55963.0,STARLINK-5924,PAYLOAD,2024-05-07 05:09:10,14.98336561,0.0002962,69.9987,157.4479,270.7137,89.3682,-5.2734e-06,-1.56e-06,0.0,0 STARLINK-5924,1 55963U 23037BB  24128.21470821 -.00000156  00000-0 -52734-5 0  9995,2 55963  69.9987 157.4479 0002962 270.7137  89.3682 14.98336561 64238,6950.173,96.107,574.096,569.979,0.0
55963.0,STARLINK-5924,PAYLOAD,2024-05-07 11:33:43,14.98334166,0.0002976,69.9988,156.7747,270.9405,89.1413,-3.6485e-05,-5.28e-06,0.0,0 STARLINK-5924,1 55963U 23037BB  24128.48174891 -.00000528  00000-0 -36485-4 0  9999,2 55963  69.9988 156.7747 0002976 270.9405  89.1413 14.98334166 63939,6950.18,96.107,574.113,569.977,0.0
55963.0,STARLINK-5924,PAYLOAD,2024-05-08 05:11:11,14.98331909,0.0003035,69.9987,154.9231,270.7956,89.2855,6.0456e-05,6.28e-06,0.0,0 STARLINK-5924,1 55963U 23037BB  24129.21610683  .00000628  00000-0  60456-4 0  9999,2 55963  69.9987 154.9231 0003035 270.7956  89.2855 14.98331909 64385,6950.187,96.107,574.161,569.943,0.0
55963.0,STARLINK-5924,PAYLOAD,2024-05-08 11:35:43,14.98331917,0.000307,69.9987,154.2493,270.0832,89.9975,4.311e-05,4.21e-06,0.0,0 STARLINK-5924,1 55963U 23037BB  24129.48314696  .00000421  00000-0  43110-4 0  9992,2 55963  69.9987 154.2493 0003070 270.0832  89.9975 14.98331917 64089,6950.187,96.107,574.186,569.918,0.0
55963.0,STARLINK-5924,PAYLOAD,2024-05-09 05:13:12,14.98331389,0.0003135,69.9986,152.3979,269.6997,90.3803,7.6574e-05,8.21e-06,0.0,0 STARLINK-5924,1 55963U 23037BB  24130.21750603  .00000821  00000-0  76574-4 0  9991,2 55963  69.9986 152.3979 0003135 269.6997  90.3803 14.98331389 64533,6950.189,96.107,574.232,569.875,0.0
55963.0,STARLINK-5924,PAYLOAD,2024-05-09 11:37:44,14.98332403,0.0003147,69.9986,151.7248,269.4187,90.6612,7.149e-05,7.6e-06,0.0,0 STARLINK-5924,1 55963U 23037BB  24130.48454574  .00000760  00000-0  71490-4 0  9992,2 55963  69.9986 151.7248 0003147 269.4187  90.6612 14.98332403 64233,6950.185,96.107,574.238,569.863,0.0
55963.0,STARLINK-5924,PAYLOAD,2024-05-10 05:15:13,14.98333806,0.0003156,69.9986,149.8732,269.5039,90.5759,7.8012e-05,8.38e-06,0.0,0 STARLINK-5924,1 55963U 23037BB  24131.21890493  .00000838  00000-0  78012-4 0  9991,2 55963  69.9986 149.8732 0003156 269.5039  90.5759 14.98333806 64684,6950.181,96.107,574.24,569.853,0.0
55963.0,STARLINK-5924,PAYLOAD,2024-05-10 11:39:45,14.9833483,0.0003144,69.9986,149.2,269.5099,90.5699,8.6335e-05,9.37e-06,0.0,0 STARLINK-5924,1 55963U 23037BB  24131.48594384  .00000937  00000-0  86335-4 0  9997,2 55963  69.9986 149.2000 0003144 269.5099  90.5699 14.98334830 64387,6950.178,96.107,574.228,569.858,0.0
55963.0,STARLINK-5924,PAYLOAD,2024-05-10 18:04:17,14.98333319,0.0003135,69.9986,148.5266,269.6713,90.4086,6.4798e-05,6.8e-06,0.0,0 STARLINK-5924,1 55963U 23037BB  24131.75298489  .00000680  00000-0  64798-4 0  9998,2 55963  69.9986 148.5266 0003135 269.6713  90.4086 14.98333319 64422,6950.183,96.107,574.227,569.869,0.0
55963.0,STARLINK-5924,PAYLOAD,2024-05-11 05:17:14,14.98335666,0.0003111,69.9986,147.3484,269.6439,90.4364,0.00010672,1.181e-05,0.0,0 STARLINK-5924,1 55963U 23037BB  24132.22030353  .00001181  00000-0  10672-3 0  9993,2 55963  69.9986 147.3484 0003111 269.6439  90.4364 14.98335666 64831,6950.175,96.107,574.203,569.878,0.0
55963.0,STARLINK-5924,PAYLOAD,2024-05-11 08:29:29,14.983515,0.0003042,69.9986,147.0118,269.093,90.988,0.00031525,3.673e-05,0.0,0 STARLINK-5924,1 55963U 23037BB  24132.35381443  .00003673  00000-0  31525-3 0  9994,2 55963  69.9986 147.0118 0003042 269.0930  90.9880 14.98351500 64850,6950.126,96.106,574.106,569.877,0.0
55963.0,STARLINK-5924,PAYLOAD,2024-05-11 18:06:17,14.98353127,0.000299,69.9989,146.0007,274.991,85.0908,7.0412e-06,-9e-08,0.0,0 STARLINK-5924,1 55963U 23037BB  24132.75436971 -.00000009  00000-0  70412-5 0  9996,2 55963  69.9989 146.0007 0002990 274.9910  85.0908 14.98353127 64575,6950.121,96.106,574.064,569.908,0.0
55963.0,STARLINK-5924,PAYLOAD,2024-05-12 05:19:14,14.98335128,0.0002823,70.0002,144.8243,270.2092,89.8743,8.8804e-05,9.67e-06,0.0,0 STARLINK-5924,1 55963U 23037BB  24133.22169851  .00000967  00000-0  88804-4 0  9994,2 55963  70.0002 144.8243 0002823 270.2092  89.8743 14.98335128 64982,6950.177,96.107,574.004,570.08,0.0
55963.0,STARLINK-5924,PAYLOAD,2024-05-12 10:07:39,14.98332454,0.0002907,69.9989,144.3194,270.5445,89.5381,4.4382e-05,4.37e-06,0.0,0 STARLINK-5924,1 55963U 23037BB  24133.42197998  .00000437  00000-0  44382-4 0  9994,2 55963  69.9989 144.3194 0002907 270.5445  89.5381 14.98332454 64671,6950.185,96.107,574.071,570.03,0.0
55963.0,STARLINK-5924,PAYLOAD,2024-05-12 18:08:19,14.98329459,0.0003094,69.9985,143.4767,270.4069,89.6735,-6.3379e-06,-1.69e-06,0.0,0 STARLINK-5924,1 55963U 23037BB  24133.75578169 -.00000169  00000-0 -63379-5 0  9995,2 55963  69.9985 143.4767 0003094 270.4069  89.6735 14.98329459 65061,6950.195,96.107,574.21,569.909,0.0
55963.0,STARLINK-5924,PAYLOAD,2024-05-13 05:21:16,14.9832042,0.0002876,69.9987,142.2983,270.8761,89.2069,-0.00013089,-1.654e-05,0.0,0 STARLINK-5924,1 55963U 23037BB  24134.22311320 -.00001654  00000-0 -13089-3 0  9993,2 55963  69.9987 142.2983 0002876 270.8761  89.2069 14.98320420 65133,6950.223,96.108,574.086,570.089,0.0
55963.0,STARLINK-5924,PAYLOAD,2024-05-13 10:09:41,14.98319397,0.0003112,69.9986,141.7935,270.631,89.4492,-9.5254e-05,-1.229e-05,0.0,0 STARLINK-5924,1 55963U 23037BB  24134.42339408 -.00001229  00000-0 -95254-4 0  9995,2 55963  69.9986 141.7935 0003112 270.6310  89.4492 14.98319397 64823,6950.226,96.108,574.254,569.928,0.0
